CCSDS_OMM_VERS = 2.0
CREATION_DATE  = 
ORIGINATOR     = 

OBJECT_NAME    = SL-4 R/B
OBJECT_ID      = 2014-021B
CENTER_NAME    = EARTH
REF_FRAME      = TEME
TIME_SYSTEM    = UTC
MEAN_ELEMENT_THEORY = SGP/SGP4

EPOCH          = 2025-12-27T07:28:36.811488
MEAN_MOTION    = 15.37011716
ECCENTRICITY   = .01006003
INCLINATION    = 51.6092
RA_OF_ASC_NODE = 329.7595
ARG_OF_PERICENTER = 198.8547
MEAN_ANOMALY   = 160.8700

EPHEMERIS_TYPE = 0
CLASSIFICATION_TYPE = U
NORAD_CAT_ID   = 39679
ELEMENT_SET_NO = 999
REV_AT_EPOCH   = 64513
BSTAR          = .29503733E-3
MEAN_MOTION_DOT = .1245E-3
MEAN_MOTION_DDOT = 0

CCSDS_OMM_VERS = 2.0
CREATION_DATE  = 
ORIGINATOR     = 

OBJECT_NAME    = ALOS-2
OBJECT_ID      = 2014-029A
CENTER_NAME    = EARTH
REF_FRAME      = TEME
TIME_SYSTEM    = UTC
MEAN_ELEMENT_THEORY = SGP/SGP4

EPOCH          = 2025-12-27T23:03:02.348640
MEAN_MOTION    = 14.79472157
ECCENTRICITY   = .00014478
INCLINATION    = 97.9214
RA_OF_ASC_NODE = 96.5893
ARG_OF_PERICENTER = 100.7870
MEAN_ANOMALY   = 259.3505

EPHEMERIS_TYPE = 0
CLASSIFICATION_TYPE = U
NORAD_CAT_ID   = 39766
ELEMENT_SET_NO = 999
REV_AT_EPOCH   = 62626
BSTAR          = .41177789E-3
MEAN_MOTION_DOT = .3025E-4
MEAN_MOTION_DDOT = 0

CCSDS_OMM_VERS = 2.0
CREATION_DATE  = 
ORIGINATOR     = 

OBJECT_NAME    = YAOGAN-29
OBJECT_ID      = 2015-069A
CENTER_NAME    = EARTH
REF_FRAME      = TEME
TIME_SYSTEM    = UTC
MEAN_ELEMENT_THEORY = SGP/SGP4

EPOCH          = 2025-12-28T00:02:45.930336
MEAN_MOTION    = 14.82897104
ECCENTRICITY   = .00010705
INCLINATION    = 98.0211
RA_OF_ASC_NODE = 25.2213
ARG_OF_PERICENTER = 159.0688
MEAN_ANOMALY   = 201.0569

EPHEMERIS_TYPE = 0
CLASSIFICATION_TYPE = U
NORAD_CAT_ID   = 41038
ELEMENT_SET_NO = 999
REV_AT_EPOCH   = 54525
BSTAR          = -.5952804E-5
MEAN_MOTION_DOT = -.102E-5
MEAN_MOTION_DDOT = 0

CCSDS_OMM_VERS = 2.0
CREATION_DATE  = 
ORIGINATOR     = 

OBJECT_NAME    = ASTRO-H (HITOMI)
OBJECT_ID      = 2016-012A
CENTER_NAME    = EARTH
REF_FRAME      = TEME
TIME_SYSTEM    = UTC
MEAN_ELEMENT_THEORY = SGP/SGP4

EPOCH          = 2025-12-27T23:11:01.441824
MEAN_MOTION    = 15.09455068
ECCENTRICITY   = .00096592
INCLINATION    = 30.9995
RA_OF_ASC_NODE = 99.2030
ARG_OF_PERICENTER = 331.2708
MEAN_ANOMALY   = 28.7397

EPHEMERIS_TYPE = 0
CLASSIFICATION_TYPE = U
NORAD_CAT_ID   = 41337
ELEMENT_SET_NO = 999
REV_AT_EPOCH   = 54138
BSTAR          = .27559766E-3
MEAN_MOTION_DOT = .4619E-4
MEAN_MOTION_DDOT = 0

CCSDS_OMM_VERS = 2.0
CREATION_DATE  = 
ORIGINATOR     = 

OBJECT_NAME    = HXMT (HUIYAN)
OBJECT_ID      = 2017-034A
CENTER_NAME    = EARTH
REF_FRAME      = TEME
TIME_SYSTEM    = UTC
MEAN_ELEMENT_THEORY = SGP/SGP4

EPOCH          = 2025-12-27T21:00:54.140832
MEAN_MOTION    = 15.16418404
ECCENTRICITY   = .00315223
INCLINATION    = 43.0145
RA_OF_ASC_NODE = 55.6258
ARG_OF_PERICENTER = 142.5538
MEAN_ANOMALY   = 217.7514

EPHEMERIS_TYPE = 0
CLASSIFICATION_TYPE = U
NORAD_CAT_ID   = 42758
ELEMENT_SET_NO = 999
REV_AT_EPOCH   = 47163
BSTAR          = .3849833E-3
MEAN_MOTION_DOT = .7481E-4
MEAN_MOTION_DDOT = 0

CCSDS_OMM_VERS = 2.0
CREATION_DATE  = 
ORIGINATOR     = 

OBJECT_NAME    = CZ-2C R/B
OBJECT_ID      = 2018-054D
CENTER_NAME    = EARTH
REF_FRAME      = TEME
TIME_SYSTEM    = UTC
MEAN_ELEMENT_THEORY = SGP/SGP4

EPOCH          = 2025-12-27T13:26:52.824768
MEAN_MOTION    = 15.77311118
ECCENTRICITY   = .00141846
INCLINATION    = 35.1325
RA_OF_ASC_NODE = 80.1600
ARG_OF_PERICENTER = 290.6341
MEAN_ANOMALY   = 69.2872

EPHEMERIS_TYPE = 0
CLASSIFICATION_TYPE = U
NORAD_CAT_ID   = 43521
ELEMENT_SET_NO = 999
REV_AT_EPOCH   = 41739
BSTAR          = .8327415E-3
MEAN_MOTION_DOT = .145742E-2
MEAN_MOTION_DDOT = 0

CCSDS_OMM_VERS = 2.0
CREATION_DATE  = 
ORIGINATOR     = 

OBJECT_NAME    = SAOCOM 1A
OBJECT_ID      = 2018-076A
CENTER_NAME    = EARTH
REF_FRAME      = TEME
TIME_SYSTEM    = UTC
MEAN_ELEMENT_THEORY = SGP/SGP4

EPOCH          = 2025-12-27T23:55:25.114944
MEAN_MOTION    = 14.82147610
ECCENTRICITY   = .00013496
INCLINATION    = 97.8847
RA_OF_ASC_NODE = 186.1964
ARG_OF_PERICENTER = 82.6180
MEAN_ANOMALY   = 277.5187

EPHEMERIS_TYPE = 0
CLASSIFICATION_TYPE = U
NORAD_CAT_ID   = 43641
ELEMENT_SET_NO = 999
REV_AT_EPOCH   = 39074
BSTAR          = -.2395802E-5
MEAN_MOTION_DOT = -.71E-6
MEAN_MOTION_DDOT = 0

CCSDS_OMM_VERS = 2.0
CREATION_DATE  = 
ORIGINATOR     = 

OBJECT_NAME    = H-2A R/B
OBJECT_ID      = 2018-084L
CENTER_NAME    = EARTH
REF_FRAME      = TEME
TIME_SYSTEM    = UTC
MEAN_ELEMENT_THEORY = SGP/SGP4

EPOCH          = 2025-12-27T12:42:45.552960
MEAN_MOTION    = 15.37926325
ECCENTRICITY   = .00264096
INCLINATION    = 98.8771
RA_OF_ASC_NODE = 198.6806
ARG_OF_PERICENTER = 274.5412
MEAN_ANOMALY   = 85.2812

EPHEMERIS_TYPE = 0
CLASSIFICATION_TYPE = U
NORAD_CAT_ID   = 43682
ELEMENT_SET_NO = 999
REV_AT_EPOCH   = 39467
BSTAR          = .65164977E-3
MEAN_MOTION_DOT = .24532E-3
MEAN_MOTION_DDOT = 0

CCSDS_OMM_VERS = 2.0
CREATION_DATE  = 
ORIGINATOR     = 

OBJECT_NAME    = SAOCOM 1B
OBJECT_ID      = 2020-059A
CENTER_NAME    = EARTH
REF_FRAME      = TEME
TIME_SYSTEM    = UTC
MEAN_ELEMENT_THEORY = SGP/SGP4

EPOCH          = 2025-12-27T23:03:12.267360
MEAN_MOTION    = 14.82156865
ECCENTRICITY   = .00014815
INCLINATION    = 97.8845
RA_OF_ASC_NODE = 185.2607
ARG_OF_PERICENTER = 85.0689
MEAN_ANOMALY   = 275.0693

EPHEMERIS_TYPE = 0
CLASSIFICATION_TYPE = U
NORAD_CAT_ID   = 46265
ELEMENT_SET_NO = 999
REV_AT_EPOCH   = 28812
BSTAR          = .15581663E-3
MEAN_MOTION_DOT = .1188E-4
MEAN_MOTION_DDOT = 0

CCSDS_OMM_VERS = 2.0
CREATION_DATE  = 
ORIGINATOR     = 

OBJECT_NAME    = CSS (TIANHE)
OBJECT_ID      = 2021-035A
CENTER_NAME    = EARTH
REF_FRAME      = TEME
TIME_SYSTEM    = UTC
MEAN_ELEMENT_THEORY = SGP/SGP4

EPOCH          = 2025-12-27T22:56:58.635744
MEAN_MOTION    = 15.59777304
ECCENTRICITY   = .00088589
INCLINATION    = 41.4675
RA_OF_ASC_NODE = 284.2863
ARG_OF_PERICENTER = 163.5308
MEAN_ANOMALY   = 196.5820

EPHEMERIS_TYPE = 0
CLASSIFICATION_TYPE = U
NORAD_CAT_ID   = 48274
ELEMENT_SET_NO = 999
REV_AT_EPOCH   = 26640
BSTAR          = .23041433E-3
MEAN_MOTION_DOT = .1874E-3
MEAN_MOTION_DDOT = 0

CCSDS_OMM_VERS = 2.0
CREATION_DATE  = 
ORIGINATOR     = 

OBJECT_NAME    = COSMOS 2550
OBJECT_ID      = 2021-056A
CENTER_NAME    = EARTH
REF_FRAME      = TEME
TIME_SYSTEM    = UTC
MEAN_ELEMENT_THEORY = SGP/SGP4

EPOCH          = 2025-12-27T23:37:51.299328
MEAN_MOTION    = 15.33831619
ECCENTRICITY   = .00083608
INCLINATION    = 67.1450
RA_OF_ASC_NODE = 257.8232
ARG_OF_PERICENTER = 269.9989
MEAN_ANOMALY   = 90.0207

EPHEMERIS_TYPE = 0
CLASSIFICATION_TYPE = U
NORAD_CAT_ID   = 48865
ELEMENT_SET_NO = 999
REV_AT_EPOCH   = 25246
BSTAR          = .1284808E-5
MEAN_MOTION_DOT = -.149E-5
MEAN_MOTION_DDOT = 0

CCSDS_OMM_VERS = 2.0
CREATION_DATE  = 
ORIGINATOR     = 

OBJECT_NAME    = CZ-2C R/B
OBJECT_ID      = 2022-058K
CENTER_NAME    = EARTH
REF_FRAME      = TEME
TIME_SYSTEM    = UTC
MEAN_ELEMENT_THEORY = SGP/SGP4

EPOCH          = 2025-12-27T15:29:38.508576
MEAN_MOTION    = 15.49275197
ECCENTRICITY   = .00444614
INCLINATION    = 50.1923
RA_OF_ASC_NODE = 327.4922
ARG_OF_PERICENTER = 259.8008
MEAN_ANOMALY   = 99.7944

EPHEMERIS_TYPE = 0
CLASSIFICATION_TYPE = U
NORAD_CAT_ID   = 52794
ELEMENT_SET_NO = 999
REV_AT_EPOCH   = 19894
BSTAR          = .64697349E-3
MEAN_MOTION_DOT = .37206E-3
MEAN_MOTION_DDOT = 0

