SL-4 R/B                
1 39679U 14021B   25361.31153717  .00012450  00000+0  29504-3 0  9991
2 39679  51.6092 329.7595 0100600 198.8547 160.8700 15.37011716645131
ALOS-2                  
1 39766U 14029A   25361.96044385  .00003025  00000+0  41178-3 0  9996
2 39766  97.9214  96.5893 0001447 100.7870 259.3505 14.79472157626262
YAOGAN-29               
1 41038U 15069A   25362.00192049 -.00000102  00000+0 -59528-5 0  9998
2 41038  98.0211  25.2213 0001070 159.0688 201.0569 14.82897104545257
ASTRO-H (HITOMI)        
1 41337U 16012A   25361.96598891  .00004619  00000+0  27560-3 0  9992
2 41337  30.9995  99.2030 0009659 331.2708  28.7397 15.09455068541381
HXMT (HUIYAN)           
1 42758U 17034A   25361.87562663  .00007481  00000+0  38498-3 0  9995
2 42758  43.0145  55.6258 0031522 142.5538 217.7514 15.16418404471639
CZ-2C R/B               
1 43521U 18054D   25361.56033362  .00145742  00000+0  83274-3 0  9997
2 43521  35.1325  80.1600 0014184 290.6341  69.2872 15.77311118417397
SAOCOM 1A               
1 43641U 18076A   25361.99681846 -.00000071  00000+0 -23958-5 0  9999
2 43641  97.8847 186.1964 0001349  82.6180 277.5187 14.82147610390744
H-2A R/B                
1 43682U 18084L   25361.52969390  .00024532  00000+0  65165-3 0  9995
2 43682  98.8771 198.6806 0026409 274.5412  85.2812 15.37926325394677
SAOCOM 1B               
1 46265U 20059A   25361.96055865  .00001188  00000+0  15582-3 0  9991
2 46265  97.8845 185.2607 0001481  85.0689 275.0693 14.82156865288124
CSS (TIANHE)            
1 48274U 21035A   25361.95623421  .00018740  00000+0  23041-3 0  9997
2 48274  41.4675 284.2863 0008858 163.5308 196.5820 15.59777304266409
COSMOS 2550             
1 48865U 21056A   25361.98462152 -.00000149  00000+0  12848-5 0  9991
2 48865  67.1450 257.8232 0008360 269.9989  90.0207 15.33831619252461
CZ-2C R/B               
1 52794U 22058K   25361.64558459  .00037206  00000+0  64697-3 0  9999
2 52794  50.1923 327.4922 0044461 259.8008  99.7944 15.49275197198942
